OBJECT_NAME,OBJECT_ID,EPOCH,MEAN_MOTION,ECCENTRICITY,INCLINATION,RA_OF_ASC_NODE,ARG_OF_PERICENTER,MEAN_ANOMALY,EPHEMERIS_TYPE,CLASSIFICATION_TYPE,NORAD_CAT_ID,ELEMENT_SET_NO,REV_AT_EPOCH,BSTAR,MEAN_MOTION_DOT,MEAN_MOTION_DDOT
STARLINK-37408,2026-133L,2026-06-25T14:00:01.999872,15.82910509,.00011921,53.1582,279.7948,62.1834,88.6544,0,U,69518,999,321,-.91491206E-2,-.1718984E-1,0
STARLINK-37570,2026-133M,2026-06-25T14:00:01.999872,15.83801359,.00012242,53.1581,279.7372,68.2388,110.0393,0,U,69519,999,321,-.97462575E-2,-.1925858E-1,0
STARLINK-37510,2026-133N,2026-06-25T14:00:01.999872,15.82938849,.00013145,53.1579,279.7684,57.3617,106.1961,0,U,69520,999,321,-.96962489E-2,-.1849449E-1,0
STARLINK-37586,2026-133P,2026-06-25T14:00:01.999872,15.86680628,.0001327,53.1567,279.6876,63.5785,138.8179,0,U,69521,999,321,-.82699447E-2,-.184506E-1,0
STARLINK-37379,2026-133Q,2026-06-25T14:00:01.999872,15.84774269,.00011543,53.1575,279.6759,63.9915,143.8912,0,U,69522,999,326,-.84637377E-2,-.17368E-1,0
STARLINK-37429,2026-133R,2026-06-25T14:00:01.999872,15.85034628,.00013608,53.1571,279.6580,71.7507,144.6839,0,U,69523,999,326,-.83679168E-2,-.1738965E-1,0
STARLINK-37352,2026-133S,2026-06-25T14:00:01.999872,15.85494441,.0001144,53.1569,279.6299,69.1655,160.7667,0,U,69524,999,326,-.81578652E-2,-.1734409E-1,0
STARLINK-37490,2026-133T,2026-06-25T14:00:01.999872,15.88598904,.00008076,53.1562,279.5631,70.9559,191.1451,0,U,69525,999,326,-.81671186E-2,-.202879E-1,0
STARLINK-37438,2026-133U,2026-06-25T14:00:01.999872,15.85916638,.00010091,53.1568,279.6066,81.0858,160.3995,0,U,69526,999,326,-.85481374E-2,-.1878904E-1,0
STARLINK-37484,2026-133V,2026-06-25T14:00:01.999872,15.88071630,.00007199,53.1561,279.5496,49.2368,219.3126,0,U,69527,999,326,-.45056776E-2,-.11085E-1,0
STARLINK-37523,2026-133W,2026-06-25T14:00:01.999872,15.87034584,.00009876,53.1562,279.5318,64.6502,212.4458,0,U,69528,999,326,-.75106371E-2,-.1724653E-1,0
STARLINK-37369,2026-133X,2026-06-25T14:00:01.999872,15.87345275,.00009803,53.1557,279.5115,62.9864,223.7780,0,U,69529,999,326,-.73726769E-2,-.1720172E-1,0
STARLINK-37670,2026-133Y,2026-06-25T14:00:01.999872,15.87973422,.00008491,53.1556,279.4760,64.8920,239.1476,0,U,69530,999,326,-.71190223E-2,-.1714918E-1,0
STARLINK-37897,2026-133Z,2026-06-25T14:00:01.999872,15.88393740,.00009544,53.1554,279.4479,68.7041,248.5282,0,U,69531,999,321,-.69734198E-2,-.1715861E-1,0
STARLINK-37933,2026-133AA,2026-06-25T14:00:01.999872,15.89057936,.00007829,53.1554,279.4077,69.7864,266.5866,0,U,69532,999,321,-.74753773E-2,-.1874229E-1,0
STARLINK-37890,2026-133AB,2026-06-25T14:00:01.999872,15.91093728,.00007314,53.1556,279.3823,55.8431,292.7218,0,U,69533,999,321,-.70829493E-2,-.227592E-1,.13747168E-2
STARLINK-37407,2026-133AC,2026-06-25T14:00:01.999872,15.91271628,.00008195,53.1554,279.3438,65.2756,301.4339,0,U,69534,999,326,-.67600232E-2,-.2193088E-1,.12838543E-2
STARLINK-37888,2026-133AD,2026-06-25T14:00:01.999872,15.92577252,.00008674,53.1555,279.3175,50.9476,328.3840,0,U,69535,999,321,-.19222706E-2,-.676117E-2,.15248218E-3
STARLINK-37889,2026-133AE,2026-06-25T14:00:01.999872,15.84605171,.00011618,53.1587,279.7182,73.4804,115.3050,0,U,69536,999,321,-.91238551E-2,-.1880814E-1,0
2026-134A,2026-134A,2026-06-25T14:36:23.878944,15.09281533,.0014531,97.7011,246.7433,239.7554,120.2237,0,U,69538,999,158,.42206733E-3,.6676E-4,0
2026-134B,2026-134B,2026-06-25T11:23:55.176288,15.09435712,.00146364,97.6986,246.6086,242.9575,117.0160,0,U,69539,999,155,.40060936E-3,.636E-4,0
2026-134C,2026-134C,2026-06-25T11:23:36.873312,15.09467613,.00140698,97.6991,246.6095,244.2416,115.7361,0,U,69540,999,155,.41013902E-3,.6518E-4,0
2026-134D,2026-134D,2026-06-25T11:23:03.001920,15.09524618,.00150784,97.7029,246.6144,243.8941,116.0737,0,U,69541,999,155,.40780537E-3,.6492E-4,0
2026-134E,2026-134E,2026-06-25T11:22:50.024640,15.09546767,.00148406,97.7050,246.6171,244.6340,115.3352,0,U,69542,999,155,.40773361E-3,.6495E-4,0
2026-134F,2026-134F,2026-06-25T14:33:17.031168,15.09595069,.00141227,97.7003,246.7451,246.0333,113.9417,0,U,69543,999,157,.41155038E-3,.6563E-4,0
2026-134G,2026-134G,2026-06-25T11:21:33.757632,15.09676374,.00146157,97.7049,246.6178,247.3089,112.6594,0,U,69544,999,155,.40327067E-3,.6445E-4,0
2026-134H,2026-134H,2026-06-25T11:20:55.141152,15.09742296,.00144746,97.7033,246.6167,248.7727,111.1956,0,U,69545,999,154,.40215981E-3,.6439E-4,0
STARLINK-37880,2026-135A,2026-06-25T14:00:01.999872,15.80820251,.00013846,97.2842,204.0628,93.7152,331.3037,0,U,69546,999,266,-.15788116E-3,-.30285E-3,0
STARLINK-37881,2026-135B,2026-06-25T14:00:01.999872,15.80825762,.00013097,97.2842,204.0643,102.3128,325.9360,0,U,69547,999,266,-.18415342E-3,-.35289E-3,0
