STARLINK-37408          
1 69518U 26133L   26176.58335648 -.01718984  00000+0 -91491-2 0  9993
2 69518  53.1582 279.7948 0001192  62.1834  88.6544 15.82910509  3219
STARLINK-37570          
1 69519U 26133M   26176.58335648 -.01925858  00000+0 -97463-2 0  9999
2 69519  53.1581 279.7372 0001224  68.2388 110.0393 15.83801359  3212
STARLINK-37510          
1 69520U 26133N   26176.58335648 -.01849449  00000+0 -96962-2 0  9995
2 69520  53.1579 279.7684 0001314  57.3617 106.1961 15.82938849  3212
STARLINK-37586          
1 69521U 26133P   26176.58335648 -.01845060  00000+0 -82699-2 0  9993
2 69521  53.1567 279.6876 0001327  63.5785 138.8179 15.86680628  3217
STARLINK-37379          
1 69522U 26133Q   26176.58335648 -.01736800  00000+0 -84637-2 0  9999
2 69522  53.1575 279.6759 0001154  63.9915 143.8912 15.84774269  3263
STARLINK-37429          
1 69523U 26133R   26176.58335648 -.01738965  00000+0 -83679-2 0  9999
2 69523  53.1571 279.6580 0001360  71.7507 144.6839 15.85034628  3261
STARLINK-37352          
1 69524U 26133S   26176.58335648 -.01734409  00000+0 -81579-2 0  9996
2 69524  53.1569 279.6299 0001144  69.1655 160.7667 15.85494441  3262
STARLINK-37490          
1 69525U 26133T   26176.58335648 -.02028790  00000+0 -81671-2 0  9990
2 69525  53.1562 279.5631 0000807  70.9559 191.1451 15.88598904  3264
STARLINK-37438          
1 69526U 26133U   26176.58335648 -.01878904  00000+0 -85481-2 0  9993
2 69526  53.1568 279.6066 0001009  81.0858 160.3995 15.85916638  3260
STARLINK-37484          
1 69527U 26133V   26176.58335648 -.01108500  00000+0 -45057-2 0  9997
2 69527  53.1561 279.5496 0000719  49.2368 219.3126 15.88071630  3267
STARLINK-37523          
1 69528U 26133W   26176.58335648 -.01724653  00000+0 -75106-2 0  9999
2 69528  53.1562 279.5318 0000987  64.6502 212.4458 15.87034584  3268
STARLINK-37369          
1 69529U 26133X   26176.58335648 -.01720172  00000+0 -73727-2 0  9999
2 69529  53.1557 279.5115 0000980  62.9864 223.7780 15.87345275  3268
STARLINK-37670          
1 69530U 26133Y   26176.58335648 -.01714918  00000+0 -71190-2 0  9994
2 69530  53.1556 279.4760 0000849  64.8920 239.1476 15.87973422  3266
STARLINK-37897          
1 69531U 26133Z   26176.58335648 -.01715861  00000+0 -69734-2 0  9994
2 69531  53.1554 279.4479 0000954  68.7041 248.5282 15.88393740  3210
STARLINK-37933          
1 69532U 26133AA  26176.58335648 -.01874229  00000+0 -74754-2 0  9997
2 69532  53.1554 279.4077 0000782  69.7864 266.5866 15.89057936  3211
STARLINK-37890          
1 69533U 26133AB  26176.58335648 -.02275920  13747-2 -70829-2 0  9996
2 69533  53.1556 279.3823 0000731  55.8431 292.7218 15.91093728  3216
STARLINK-37407          
1 69534U 26133AC  26176.58335648 -.02193088  12839-2 -67600-2 0  9995
2 69534  53.1554 279.3438 0000819  65.2756 301.4339 15.91271628  3263
STARLINK-37888          
1 69535U 26133AD  26176.58335648 -.00676117  15248-3 -19223-2 0  9999
2 69535  53.1555 279.3175 0000867  50.9476 328.3840 15.92577252  3219
STARLINK-37889          
1 69536U 26133AE  26176.58335648 -.01880814  00000+0 -91239-2 0  9995
2 69536  53.1587 279.7182 0001161  73.4804 115.3050 15.84605171  3210
2026-134A               
1 69538U 26134A   26176.60860971  .00006676  00000+0  42207-3 0  9998
2 69538  97.7011 246.7433 0014531 239.7554 120.2237 15.09281533  1584
2026-134B               
1 69539U 26134B   26176.47494417  .00006360  00000+0  40061-3 0  9998
2 69539  97.6986 246.6086 0014636 242.9575 117.0160 15.09435712  1559
2026-134C               
1 69540U 26134C   26176.47473233  .00006518  00000+0  41014-3 0  9997
2 69540  97.6991 246.6095 0014069 244.2416 115.7361 15.09467613  1559
2026-134D               
1 69541U 26134D   26176.47434030  .00006492  00000+0  40781-3 0  9991
2 69541  97.7029 246.6144 0015078 243.8941 116.0737 15.09524618  1557
2026-134E               
1 69542U 26134E   26176.47419010  .00006495  00000+0  40773-3 0  9997
2 69542  97.7050 246.6171 0014840 244.6340 115.3352 15.09546767  1554
2026-134F               
1 69543U 26134F   26176.60644712  .00006563  00000+0  41155-3 0  9993
2 69543  97.7003 246.7451 0014122 246.0333 113.9417 15.09595069  1573
2026-134G               
1 69544U 26134G   26176.47330738  .00006445  00000+0  40327-3 0  9998
2 69544  97.7049 246.6178 0014615 247.3089 112.6594 15.09676374  1557
2026-134H               
1 69545U 26134H   26176.47286043  .00006439  00000+0  40216-3 0  9998
2 69545  97.7033 246.6167 0014474 248.7727 111.1956 15.09742296  1548
STARLINK-37880          
1 69546U 26135A   26176.58335648 -.00030285  00000+0 -15788-3 0  9992
2 69546  97.2842 204.0628 0001384  93.7152 331.3037 15.80820251  2665
STARLINK-37881          
1 69547U 26135B   26176.58335648 -.00035289  00000+0 -18415-3 0  9992
2 69547  97.2842 204.0643 0001309 102.3128 325.9360 15.80825762  2660
